[{"OBJECT_NAME":"KUIPER-00118","OBJECT_ID":"2025-171Y","EPOCH":"2026-03-09T11:44:20.268672","MEAN_MOTION":14.80076244,"ECCENTRICITY":5.54e-5,"INCLINATION":51.8989,"RA_OF_ASC_NODE":176.4665,"ARG_OF_PERICENTER":68.0041,"MEAN_ANOMALY":292.098,"EPHEMERIS_TYPE":0,"CLASSIFICATION_TYPE":"U","NORAD_CAT_ID":65154,"ELEMENT_SET_NO":999,"REV_AT_EPOCH":3261,"BSTAR":0.00082993756,"MEAN_MOTION_DOT":6.133e-5,"MEAN_MOTION_DDOT":0},{"OBJECT_NAME":"COSMOS 375 DEB","OBJECT_ID":"1970-091H","EPOCH":"2026-03-09T13:56:42.077184","MEAN_MOTION":14.60451332,"ECCENTRICITY":0.0264087,"INCLINATION":62.7485,"RA_OF_ASC_NODE":160.0286,"ARG_OF_PERICENTER":210.3604,"MEAN_ANOMALY":148.1954,"EPHEMERIS_TYPE":0,"CLASSIFICATION_TYPE":"U","NORAD_CAT_ID":4628,"ELEMENT_SET_NO":999,"REV_AT_EPOCH":74903,"BSTAR":0.0018248,"MEAN_MOTION_DOT":0.00014425,"MEAN_MOTION_DDOT":0}]
